CCSDS_OMM_VERS = 2.0
CREATION_DATE  = 
ORIGINATOR     = 

OBJECT_NAME    = 2025-292H
OBJECT_ID      = 2025-292H
CENTER_NAME    = EARTH
REF_FRAME      = TEME
TIME_SYSTEM    = UTC
MEAN_ELEMENT_THEORY = SGP/SGP4

EPOCH          = 2026-01-05T11:23:21.912288
MEAN_MOTION    = 15.05305960
ECCENTRICITY   = .0015248
INCLINATION    = 97.6561
RA_OF_ASC_NODE = 82.8305
ARG_OF_PERICENTER = 193.5782
MEAN_ANOMALY   = 166.5036

EPHEMERIS_TYPE = 0
CLASSIFICATION_TYPE = U
NORAD_CAT_ID   = 67000
ELEMENT_SET_NO = 999
REV_AT_EPOCH   = 383
BSTAR          = .66278E-3
MEAN_MOTION_DOT = .945E-4
MEAN_MOTION_DDOT = 0

CCSDS_OMM_VERS = 2.0
CREATION_DATE  = 
ORIGINATOR     = 

OBJECT_NAME    = 2025-292J
OBJECT_ID      = 2025-292J
CENTER_NAME    = EARTH
REF_FRAME      = TEME
TIME_SYSTEM    = UTC
MEAN_ELEMENT_THEORY = SGP/SGP4

EPOCH          = 2026-01-05T03:39:58.858848
MEAN_MOTION    = 15.04646521
ECCENTRICITY   = .0015677
INCLINATION    = 97.6534
RA_OF_ASC_NODE = 82.4790
ARG_OF_PERICENTER = 186.2000
MEAN_ANOMALY   = 173.9034

EPHEMERIS_TYPE = 0
CLASSIFICATION_TYPE = U
NORAD_CAT_ID   = 67001
ELEMENT_SET_NO = 999
REV_AT_EPOCH   = 391
BSTAR          = .60815E-3
MEAN_MOTION_DOT = .8514E-4
MEAN_MOTION_DDOT = 0

CCSDS_OMM_VERS = 2.0
CREATION_DATE  = 
ORIGINATOR     = 

OBJECT_NAME    = ZK-1A R/B
OBJECT_ID      = 2025-292K
CENTER_NAME    = EARTH
REF_FRAME      = TEME
TIME_SYSTEM    = UTC
MEAN_ELEMENT_THEORY = SGP/SGP4

EPOCH          = 2026-01-05T11:30:16.615008
MEAN_MOTION    = 15.62903007
ECCENTRICITY   = .0192221
INCLINATION    = 97.7171
RA_OF_ASC_NODE = 85.2909
ARG_OF_PERICENTER = 278.0106
MEAN_ANOMALY   = 79.9380

EPHEMERIS_TYPE = 0
CLASSIFICATION_TYPE = U
NORAD_CAT_ID   = 67002
ELEMENT_SET_NO = 999
REV_AT_EPOCH   = 409
BSTAR          = .83143E-3
MEAN_MOTION_DOT = .199044E-2
MEAN_MOTION_DDOT = .1322E-4

CCSDS_OMM_VERS = 2.0
CREATION_DATE  = 
ORIGINATOR     = 

OBJECT_NAME    = STARLINK-35660
OBJECT_ID      = 2025-293A
CENTER_NAME    = EARTH
REF_FRAME      = TEME
TIME_SYSTEM    = UTC
MEAN_ELEMENT_THEORY = SGP/SGP4

EPOCH          = 2026-01-05T02:13:20.182944
MEAN_MOTION    = 15.52566254
ECCENTRICITY   = .0003696
INCLINATION    = 69.9982
RA_OF_ASC_NODE = 257.5314
ARG_OF_PERICENTER = 272.9458
MEAN_ANOMALY   = 87.1306

EPHEMERIS_TYPE = 0
CLASSIFICATION_TYPE = U
NORAD_CAT_ID   = 67003
ELEMENT_SET_NO = 999
REV_AT_EPOCH   = 529
BSTAR          = .14821473E-2
MEAN_MOTION_DOT = .92241E-3
MEAN_MOTION_DDOT = 0

CCSDS_OMM_VERS = 2.0
CREATION_DATE  = 
ORIGINATOR     = 

OBJECT_NAME    = STARLINK-35913
OBJECT_ID      = 2025-293B
CENTER_NAME    = EARTH
REF_FRAME      = TEME
TIME_SYSTEM    = UTC
MEAN_ELEMENT_THEORY = SGP/SGP4

EPOCH          = 2026-01-05T02:12:50.533920
MEAN_MOTION    = 15.52561731
ECCENTRICITY   = .00034474
INCLINATION    = 69.9982
RA_OF_ASC_NODE = 257.5294
ARG_OF_PERICENTER = 269.1620
MEAN_ANOMALY   = 90.9171

EPHEMERIS_TYPE = 0
CLASSIFICATION_TYPE = U
NORAD_CAT_ID   = 67004
ELEMENT_SET_NO = 999
REV_AT_EPOCH   = 529
BSTAR          = .12824318E-2
MEAN_MOTION_DOT = .79647E-3
MEAN_MOTION_DDOT = 0

CCSDS_OMM_VERS = 2.0
CREATION_DATE  = 
ORIGINATOR     = 

OBJECT_NAME    = STARLINK-36148
OBJECT_ID      = 2025-293C
CENTER_NAME    = EARTH
REF_FRAME      = TEME
TIME_SYSTEM    = UTC
MEAN_ELEMENT_THEORY = SGP/SGP4

EPOCH          = 2026-01-05T00:00:00.999648
MEAN_MOTION    = 15.52535909
ECCENTRICITY   = .00034174
INCLINATION    = 69.9998
RA_OF_ASC_NODE = 257.7797
ARG_OF_PERICENTER = 272.6655
MEAN_ANOMALY   = 293.9607

EPHEMERIS_TYPE = 0
CLASSIFICATION_TYPE = U
NORAD_CAT_ID   = 67005
ELEMENT_SET_NO = 999
REV_AT_EPOCH   = 389
BSTAR          = -.76032326E-3
MEAN_MOTION_DOT = -.46699E-3
MEAN_MOTION_DDOT = 0

CCSDS_OMM_VERS = 2.0
CREATION_DATE  = 
ORIGINATOR     = 

OBJECT_NAME    = STARLINK-36156
OBJECT_ID      = 2025-293D
CENTER_NAME    = EARTH
REF_FRAME      = TEME
TIME_SYSTEM    = UTC
MEAN_ELEMENT_THEORY = SGP/SGP4

EPOCH          = 2026-01-05T02:11:51.226368
MEAN_MOTION    = 15.52562385
ECCENTRICITY   = .00030666
INCLINATION    = 69.9982
RA_OF_ASC_NODE = 257.5269
ARG_OF_PERICENTER = 263.2725
MEAN_ANOMALY   = 96.8113

EPHEMERIS_TYPE = 0
CLASSIFICATION_TYPE = U
NORAD_CAT_ID   = 67006
ELEMENT_SET_NO = 999
REV_AT_EPOCH   = 529
BSTAR          = .1271449E-2
MEAN_MOTION_DOT = .78955E-3
MEAN_MOTION_DDOT = 0

CCSDS_OMM_VERS = 2.0
CREATION_DATE  = 
ORIGINATOR     = 

OBJECT_NAME    = STARLINK-36123
OBJECT_ID      = 2025-293E
CENTER_NAME    = EARTH
REF_FRAME      = TEME
TIME_SYSTEM    = UTC
MEAN_ELEMENT_THEORY = SGP/SGP4

EPOCH          = 2026-01-05T12:00:01.999296
MEAN_MOTION    = 15.52515332
ECCENTRICITY   = .0002885
INCLINATION    = 69.9995
RA_OF_ASC_NODE = 256.4068
ARG_OF_PERICENTER = 268.2959
MEAN_ANOMALY   = 214.0523

EPHEMERIS_TYPE = 0
CLASSIFICATION_TYPE = U
NORAD_CAT_ID   = 67007
ELEMENT_SET_NO = 999
REV_AT_EPOCH   = 397
BSTAR          = -.63404E-3
MEAN_MOTION_DOT = -.38976E-3
MEAN_MOTION_DDOT = 0

CCSDS_OMM_VERS = 2.0
CREATION_DATE  = 
ORIGINATOR     = 

OBJECT_NAME    = STARLINK-36163
OBJECT_ID      = 2025-293F
CENTER_NAME    = EARTH
REF_FRAME      = TEME
TIME_SYSTEM    = UTC
MEAN_ELEMENT_THEORY = SGP/SGP4

EPOCH          = 2026-01-05T02:10:52.059648
MEAN_MOTION    = 15.52560907
ECCENTRICITY   = .00032753
INCLINATION    = 69.9980
RA_OF_ASC_NODE = 257.5237
ARG_OF_PERICENTER = 266.5115
MEAN_ANOMALY   = 93.5697

EPHEMERIS_TYPE = 0
CLASSIFICATION_TYPE = U
NORAD_CAT_ID   = 67008
ELEMENT_SET_NO = 999
REV_AT_EPOCH   = 529
BSTAR          = .13211675E-2
MEAN_MOTION_DOT = .82079E-3
MEAN_MOTION_DDOT = 0

CCSDS_OMM_VERS = 2.0
CREATION_DATE  = 
ORIGINATOR     = 

OBJECT_NAME    = STARLINK-36118
OBJECT_ID      = 2025-293G
CENTER_NAME    = EARTH
REF_FRAME      = TEME
TIME_SYSTEM    = UTC
MEAN_ELEMENT_THEORY = SGP/SGP4

EPOCH          = 2026-01-05T02:10:22.380384
MEAN_MOTION    = 15.52557782
ECCENTRICITY   = .00035754
INCLINATION    = 69.9981
RA_OF_ASC_NODE = 257.5220
ARG_OF_PERICENTER = 269.2376
MEAN_ANOMALY   = 90.8402

EPHEMERIS_TYPE = 0
CLASSIFICATION_TYPE = U
NORAD_CAT_ID   = 67009
ELEMENT_SET_NO = 999
REV_AT_EPOCH   = 529
BSTAR          = .13374213E-2
MEAN_MOTION_DOT = .83095E-3
MEAN_MOTION_DDOT = 0

CCSDS_OMM_VERS = 2.0
CREATION_DATE  = 
ORIGINATOR     = 

OBJECT_NAME    = STARLINK-36189
OBJECT_ID      = 2025-293H
CENTER_NAME    = EARTH
REF_FRAME      = TEME
TIME_SYSTEM    = UTC
MEAN_ELEMENT_THEORY = SGP/SGP4

EPOCH          = 2026-01-05T02:09:23.119488
MEAN_MOTION    = 15.52556575
ECCENTRICITY   = .0003308
INCLINATION    = 69.9984
RA_OF_ASC_NODE = 257.5197
ARG_OF_PERICENTER = 264.4780
MEAN_ANOMALY   = 95.6030

EPHEMERIS_TYPE = 0
CLASSIFICATION_TYPE = U
NORAD_CAT_ID   = 67010
ELEMENT_SET_NO = 999
REV_AT_EPOCH   = 529
BSTAR          = .12474092E-2
MEAN_MOTION_DOT = .7743E-3
MEAN_MOTION_DDOT = 0

CCSDS_OMM_VERS = 2.0
CREATION_DATE  = 
ORIGINATOR     = 

OBJECT_NAME    = STARLINK-36167
OBJECT_ID      = 2025-293J
CENTER_NAME    = EARTH
REF_FRAME      = TEME
TIME_SYSTEM    = UTC
MEAN_ELEMENT_THEORY = SGP/SGP4

EPOCH          = 2026-01-05T02:09:52.775424
MEAN_MOTION    = 15.52562804
ECCENTRICITY   = .00033547
INCLINATION    = 69.9982
RA_OF_ASC_NODE = 257.5209
ARG_OF_PERICENTER = 268.2415
MEAN_ANOMALY   = 91.8388

EPHEMERIS_TYPE = 0
CLASSIFICATION_TYPE = U
NORAD_CAT_ID   = 67011
ELEMENT_SET_NO = 999
REV_AT_EPOCH   = 529
BSTAR          = .14846387E-2
MEAN_MOTION_DOT = .92383E-3
MEAN_MOTION_DDOT = 0

